HST                     
1 20580U 90037B   23237.17461168  .00004489  00000+0  23185-3 0  9991
2 20580  28.4681 168.7815 0002502  47.1755  55.7394 15.13832761632180
